OBJECT_NAME,OBJECT_ID,EPOCH,MEAN_MOTION,ECCENTRICITY,INCLINATION,RA_OF_ASC_NODE,ARG_OF_PERICENTER,MEAN_ANOMALY,EPHEMERIS_TYPE,CLASSIFICATION_TYPE,NORAD_CAT_ID,ELEMENT_SET_NO,REV_AT_EPOCH,BSTAR,MEAN_MOTION_DOT,MEAN_MOTION_DDOT
SAUDISAT 1C (SO-50),2002-058C,2026-06-28T11:36:44.306496,14.83069301,.00749952,64.5520,94.0340,260.3690,98.8938,0,U,27607,999,26613,.12163902E-3,.884E-5,0
SAUDISAT 2,2004-025F,2026-06-28T13:38:58.589088,14.56689916,.0023436,98.5509,179.8448,261.4269,98.4272,0,U,28371,999,16740,.62874586E-4,.232E-5,0
SAUDISAT 3,2007-012B,2026-06-28T09:51:53.163936,14.71431583,.00143864,98.1459,129.8191,186.5616,173.5404,0,U,31118,999,2939,.45921478E-4,.234E-5,0
PISAT,2016-059B,2026-06-28T14:05:49.635456,14.69002000,.00293566,97.8180,179.5503,166.1785,194.0232,0,U,41784,999,52141,.15792672E-3,.884E-5,0
FLYING LAPTOP,2017-042G,2026-06-28T14:00:34.024896,15.01217521,.00199705,97.4730,334.6810,85.2696,275.0809,0,U,42831,999,48816,.26861387E-3,.3405E-4,0
SALSAT,2020-068K,2026-06-28T14:11:59.998560,15.29955960,.00078599,97.8846,183.3517,259.1040,100.9315,0,U,46495,999,31710,.23412101E-3,.671E-4,0
